OBJECT_NAME,OBJECT_ID,EPOCH,MEAN_MOTION,ECCENTRICITY,INCLINATION,RA_OF_ASC_NODE,ARG_OF_PERICENTER,MEAN_ANOMALY,EPHEMERIS_TYPE,CLASSIFICATION_TYPE,NORAD_CAT_ID,ELEMENT_SET_NO,REV_AT_EPOCH,BSTAR,MEAN_MOTION_DOT,MEAN_MOTION_DDOT
DMSP 5D-3 F16 (USA 172),2003-048A,2026-07-07T17:56:05.379936,14.14484929,.0008216,98.9886,212.7110,89.4251,323.3709,0,U,28054,999,17239,.18747E-4,-.9E-7,0
METEOSAT-9 (MSG-2),2005-049B,2026-07-07T05:24:18.847296,1.00268823,.00021611,9.4037,53.9656,0.5612,357.4517,0,U,28912,999,719,0,.133E-5,0
DMSP 5D-3 F17 (USA 191),2006-050A,2026-07-07T17:55:11.506080,14.14995854,.0010181,98.7382,194.8963,4.3553,355.7708,0,U,29522,999,1533,.2448E-4,.4E-7,0
FENGYUN 3A,2008-026A,2026-07-07T18:28:01.515936,14.19575488,.0009852,98.6886,129.2180,71.0825,289.1419,0,U,32958,999,93832,.44996E-4,.52E-6,0
GOES 14,2009-033A,2026-07-07T17:47:07.857024,1.00102235,.0002012,1.7395,82.7948,34.9932,204.3708,0,U,35491,999,679,0,-.335E-5,0
DMSP 5D-3 F18 (USA 210),2009-057A,2026-07-07T18:57:42.078240,14.14908093,.0010773,98.9049,169.5155,186.5355,173.5679,0,U,35951,999,86250,.13489E-3,.216E-5,0
EWS-G2 (GOES 15),2010-008A,2026-07-07T17:28:09.675264,1.00268168,.0005289,1.3307,82.5659,51.0072,117.5653,0,U,36411,999,5984,0,.36E-6,0
COMS 1,2010-032A,2026-07-07T00:02:01.505184,0.99169409,.00114407,4.8529,75.1185,14.6993,190.2555,0,U,36744,999,5128,0,-.175E-5,0
FENGYUN 3B,2010-059A,2026-07-07T21:26:49.054848,14.14845006,.0022949,98.9607,234.9948,126.2732,349.5821,0,U,37214,999,81035,-.15514E-3,-.345E-5,0
SUOMI NPP,2011-061A,2026-07-07T18:45:19.351008,14.19521584,.0000567,98.7955,129.5172,270.2245,89.8866,0,U,37849,999,76136,.47617E-4,.56E-6,0
METEOSAT-10 (MSG-3),2012-035B,2026-07-07T06:54:10.581408,1.00269748,.00012865,4.7161,60.9176,18.9815,308.9890,0,U,38552,999,5105,0,.5E-7,0
METOP-B,2012-049A,2026-07-07T17:51:01.561248,14.21444955,.000111,98.6493,239.8318,301.4211,58.6858,0,U,38771,999,71618,.51499E-4,.69E-6,0
INSAT-3D,2013-038B,2026-07-07T17:47:00.367872,1.00272402,.0000517,1.9759,82.2873,60.5134,179.1806,0,U,39216,999,4728,0,-.325E-5,0
FENGYUN 3C,2013-052A,2026-07-07T21:25:08.493888,14.15759668,.0014018,98.4992,161.8178,328.2003,31.8324,0,U,39260,999,66149,.57871E-4,.72E-6,0
METEOR-M 2,2014-037A,2026-07-07T20:09:55.682784,14.21468018,.0005608,98.5130,163.8479,349.6295,10.4767,0,U,40069,999,62225,.98477E-4,.173E-5,0
HIMAWARI-8,2014-060A,2026-07-07T17:50:15.058176,1.00270432,.0000887,0.0372,277.5001,204.0391,212.3957,0,U,40267,999,4296,0,-.26E-5,0
FENGYUN 2G,2014-090A,2026-07-07T19:12:21.597408,1.00263947,.0003874,5.6876,72.5714,150.3057,90.4158,0,U,40367,999,4220,0,-.288E-5,0
METEOSAT-11 (MSG-4),2015-034A,2026-07-07T17:12:48.519936,1.00269523,.000226,3.2515,70.9828,351.0471,131.1211,0,U,40732,999,742,0,.75E-6,0
ELEKTRO-L 2,2015-074A,2026-07-07T05:55:00.833952,1.00273381,.00006018,6.7409,70.2783,240.8898,48.2797,0,U,41105,999,3870,0,-.106E-5,0
SENTINEL-3A,2016-011A,2026-07-07T18:21:03.319200,14.26738386,.000141,98.6240,255.8518,92.4321,267.7020,0,U,41335,999,54099,.48594E-4,.74E-6,0
INSAT-3DR,2016-054A,2026-07-07T15:48:33.967008,1.00272227,.0010444,0.0500,89.4185,181.3494,325.9940,0,U,41752,999,3602,0,-.62E-6,0
HIMAWARI-9,2016-064A,2026-07-06T23:01:03.045792,1.00271383,.00022065,0.0138,10.3948,162.3808,238.1863,0,U,41836,999,3540,0,0,0
GOES 16,2016-071A,2026-07-07T16:40:14.145024,1.00271466,.0000494,0.3884,85.6316,71.9669,273.4345,0,U,41866,999,3530,0,-.76E-6,0
FENGYUN 4A,2016-077A,2026-07-07T21:10:42.642336,1.00272744,.0008187,2.3716,80.0617,157.8956,129.3467,0,U,41882,999,3513,0,-.343E-5,0
CYGFM05,2016-078A,2026-07-07T05:55:30.578016,15.57578683,.00074682,34.9560,127.6686,322.9181,37.1027,0,U,41884,999,53188,.24616851E-3,.18785E-3,0
CYGFM04,2016-078B,2026-07-07T03:41:05.561376,15.62704475,.00055783,34.9321,94.9485,358.8214,1.2498,0,U,41885,999,53212,.26973782E-3,.25085E-3,0
CYGFM02,2016-078C,2026-07-07T18:03:19.280736,15.65941415,.0006362,34.9397,84.8610,9.0989,350.9853,0,U,41886,999,53239,.28136E-3,.29792E-3,0
CYGFM01,2016-078D,2026-07-07T05:26:23.096544,15.58285664,.00074136,34.9388,128.6947,316.9964,43.0180,0,U,41887,999,53183,.25095967E-3,.19674E-3,0
CYGFM08,2016-078E,2026-07-07T03:37:20.330400,15.61111887,.00077481,34.9424,108.2367,348.0053,12.0487,0,U,41888,999,53209,.26934484E-3,.2355E-3,0
CYGFM07,2016-078G,2026-07-07T04:08:44.826720,15.61221304,.00059678,34.9442,96.4152,0.1266,359.9460,0,U,41890,999,53212,.263037E-3,.2308E-3,0
CYGFM03,2016-078H,2026-07-07T03:27:09.897120,15.61208080,.00060873,34.9394,98.5399,346.3478,13.7082,0,U,41891,999,53209,.2678316E-3,.23492E-3,0
